STARLINK-2022           
1 47643U 21012Z   24058.52475835 -.00001660  00000+0 -92629-4 0  9994
2 47643  53.0540 138.8358 0001471  76.3611 283.7542 15.06388633168038
